{"type": "FeatureCollection", "features": [{"type": "Feature", "properties": {"norad_id": 22490, "name": "SCD 1", "group": "resource", "lat": 0.49241796461620163, "lon": 62.85077118758374, "alt_km": 763.5319537953674, "timestamp": "2025-12-18T08:58:43.047939+00:00", "meta": {"OBJECT_NAME": "SCD 1", "OBJECT_ID": "1993-009B", "EPOCH": "2025-12-17T09:42:49.057344", "MEAN_MOTION": 14.46002371, "ECCENTRICITY": 0.00419998, "INCLINATION": 24.9688, "RA_OF_ASC_NODE": 249.8901, "ARG_OF_PERICENTER": 14.4582, "MEAN_ANOMALY": 147.67, "EPHEMERIS_TYPE": 0, "CLASSIFICATION_TYPE": "U", "NORAD_CAT_ID": 22490, "ELEMENT_SET_NO": 999, "REV_AT_EPOCH": 73477, "BSTAR": 7.8463198e-05, "MEAN_MOTION_DOT": 4.72e-06, "MEAN_MOTION_DDOT": 0}, "tle": {"line1": "1 22490U 93009B   25351.40473446  .00000472  00000+0  78463-4 0  9990", "line2": "2 22490  24.9688 249.8901 0041999  14.4582 147.6700 14.46002371734776"}}, "geometry": {"type": "Point", "coordinates": [62.85077118758374, 0.49241796461620163]}}, {"type": "Feature", "properties": {"norad_id": 25397, "name": "TECHSAT 1B (GO-32)", "group": "resource", "lat": -63.18658136735541, "lon": 137.45846725947885, "alt_km": 819.0497983898631, "timestamp": "2025-12-18T08:58:43.047966+00:00", "meta": {"OBJECT_NAME": "TECHSAT 1B (GO-32)", "OBJECT_ID": "1998-043D", "EPOCH": "2025-12-17T21:43:06.602592", "MEAN_MOTION": 14.24378586, "ECCENTRICITY": 0.0001907, "INCLINATION": 98.9923, "RA_OF_ASC_NODE": 335.2363, "ARG_OF_PERICENTER": 49.1157, "MEAN_ANOMALY": 311.0186, "EPHEMERIS_TYPE": 0, "CLASSIFICATION_TYPE": "U", "NORAD_CAT_ID": 25397, "ELEMENT_SET_NO": 999, "REV_AT_EPOCH": 42552, "BSTAR": 5.2739716e-05, "MEAN_MOTION_DOT": 7.5e-07, "MEAN_MOTION_DDOT": 0}, "tle": {"line1": "1 25397U 98043D   25351.90493753  .00000075  00000+0  52740-4 0  9999", "line2": "2 25397  98.9923 335.2363 0001907  49.1157 311.0186 14.24378586425523"}}, "geometry": {"type": "Point", "coordinates": [137.45846725947885, -63.18658136735541]}}, {"type": "Feature", "properties": {"norad_id": 25504, "name": "SCD 2", "group": "resource", "lat": -7.860135290324973, "lon": -55.60738215555579, "alt_km": 751.5450036327575, "timestamp": "2025-12-18T08:58:43.047983+00:00", "meta": {"OBJECT_NAME": "SCD 2", "OBJECT_ID": "1998-060A", "EPOCH": "2025-12-17T15:35:50.466624", "MEAN_MOTION": 14.45426055, "ECCENTRICITY": 0.00168517, "INCLINATION": 24.9942, "RA_OF_ASC_NODE": 111.6188, "ARG_OF_PERICENTER": 5.6852, "MEAN_ANOMALY": 17.0271, "EPHEMERIS_TYPE": 0, "CLASSIFICATION_TYPE": "U", "NORAD_CAT_ID": 25504, "ELEMENT_SET_NO": 999, "REV_AT_EPOCH": 43403, "BSTAR": 5.8702746e-05, "MEAN_MOTION_DOT": 3.92e-06, "MEAN_MOTION_DDOT": 0}, "tle": {"line1": "1 25504U 98060A   25351.64988966  .00000392  00000+0  58703-4 0  9991", "line2": "2 25504  24.9942 111.6188 0016851   5.6852  17.0271 14.45426055434039"}}, "geometry": {"type": "Point", "coordinates": [-55.60738215555579, -7.860135290324973]}}, {"type": "Feature", "properties": {"norad_id": 25757, "name": "DLR-TUBSAT", "group": "resource", "lat": -49.64981404415347, "lon": -12.607898665391827, "alt_km": 731.8387715532281, "timestamp": "2025-12-18T08:58:43.047995+00:00", "meta": {"OBJECT_NAME": "DLR-TUBSAT", "OBJECT_ID": "1999-029B", "EPOCH": "2025-12-17T13:22:10.787520", "MEAN_MOTION": 14.52359578, "ECCENTRICITY": 0.00141996, "INCLINATION": 98.6566, "RA_OF_ASC_NODE": 336.2196, "ARG_OF_PERICENTER": 177.8976, "MEAN_ANOMALY": 182.2281, "EPHEMERIS_TYPE": 0, "CLASSIFICATION_TYPE": "U", "NORAD_CAT_ID": 25757, "ELEMENT_SET_NO": 999, "REV_AT_EPOCH": 40688, "BSTAR": 3.7650132e-05, "MEAN_MOTION_DOT": 1.05e-06, "MEAN_MOTION_DDOT": 0}, "tle": {"line1": "1 25757U 99029B   25351.55706930  .00000105  00000+0  37650-4 0  9996", "line2": "2 25757  98.6566 336.2196 0014199 177.8976 182.2281 14.52359578406886"}}, "geometry": {"type": "Point", "coordinates": [-12.607898665391827, -49.64981404415347]}}, {"type": "Feature", "properties": {"norad_id": 25994, "name": "TERRA", "group": "resource", "lat": -5.6244661363058635, "lon": -136.93926231993757, "alt_km": 694.4936587148495, "timestamp": "2025-12-18T08:58:43.048008+00:00", "meta": {"OBJECT_NAME": "TERRA", "OBJECT_ID": "1999-068A", "EPOCH": "2025-12-17T21:24:59.967936", "MEAN_MOTION": 14.60907758, "ECCENTRICITY": 0.0003573, "INCLINATION": 97.9743, "RA_OF_ASC_NODE": 43.3877, "ARG_OF_PERICENTER": 84.3831, "MEAN_ANOMALY": 89.0039, "EPHEMERIS_TYPE": 0, "CLASSIFICATION_TYPE": "U", "NORAD_CAT_ID": 25994, "ELEMENT_SET_NO": 999, "REV_AT_EPOCH": 38313, "BSTAR": 9.2913413e-05, "MEAN_MOTION_DOT": 4.1e-06, "MEAN_MOTION_DDOT": 0}, "tle": {"line1": "1 25994U 99068A   25351.89236074  .00000410  00000+0  92913-4 0  9998", "line2": "2 25994  97.9743  43.3877 0003573  84.3831  89.0039 14.60907758383131"}}, "geometry": {"type": "Point", "coordinates": [-136.93926231993757, -5.6244661363058635]}}, {"type": "Feature", "properties": {"norad_id": 27004, "name": "MAROC-TUBSAT", "group": "resource", "lat": 40.61401447842424, "lon": -10.567150041192068, "alt_km": 999.3529453470092, "timestamp": "2025-12-18T08:58:43.048020+00:00", "meta": {"OBJECT_NAME": "MAROC-TUBSAT", "OBJECT_ID": "2001-056D", "EPOCH": "2025-12-17T18:20:51.979200", "MEAN_MOTION": 13.70253163, "ECCENTRICITY": 0.00191379, "INCLINATION": 99.7913, "RA_OF_ASC_NODE": 160.2974, "ARG_OF_PERICENTER": 246.7526, "MEAN_ANOMALY": 126.3976, "EPHEMERIS_TYPE": 0, "CLASSIFICATION_TYPE": "U", "NORAD_CAT_ID": 27004, "ELEMENT_SET_NO": 999, "REV_AT_EPOCH": 20134, "BSTAR": 2.6264534e-05, "MEAN_MOTION_DOT": -2.4e-07, "MEAN_MOTION_DDOT": 0}, "tle": {"line1": "1 27004U 01056D   25351.76449050 -.00000024  00000+0  26265-4 0  9997", "line2": "2 27004  99.7913 160.2974 0019137 246.7526 126.3976 13.70253163201340"}}, "geometry": {"type": "Point", "coordinates": [-10.567150041192068, 40.61401447842424]}}, {"type": "Feature", "properties": {"norad_id": 27424, "name": "AQUA", "group": "resource", "lat": 76.35975136232807, "lon": -84.18856471975555, "alt_km": 679.3068847090944, "timestamp": "2025-12-18T08:58:43.048032+00:00", "meta": {"OBJECT_NAME": "AQUA", "OBJECT_ID": "2002-022A", "EPOCH": "2025-12-17T16:39:39.625632", "MEAN_MOTION": 14.61820578, "ECCENTRICITY": 0.00012752, "INCLINATION": 98.4042, "RA_OF_ASC_NODE": 312.6539, "ARG_OF_PERICENTER": 113.5428, "MEAN_ANOMALY": 349.8052, "EPHEMERIS_TYPE": 0, "CLASSIFICATION_TYPE": "U", "NORAD_CAT_ID": 27424, "ELEMENT_SET_NO": 999, "REV_AT_EPOCH": 25675, "BSTAR": 0.00018111958, "MEAN_MOTION_DOT": 8.55e-06, "MEAN_MOTION_DDOT": 0}, "tle": {"line1": "1 27424U 02022A   25351.69420863  .00000855  00000+0  18112-3 0  9992", "line2": "2 27424  98.4042 312.6539 0001275 113.5428 349.8052 14.61820578256754"}}, "geometry": {"type": "Point", "coordinates": [-84.18856471975555, 76.35975136232807]}}, {"type": "Feature", "properties": {"norad_id": 28051, "name": "IRS-P6 (RESOURCESAT-1)", "group": "resource", "lat": 37.52102349882672, "lon": -141.10828636345698, "alt_km": 725.9458196023879, "timestamp": "2025-12-18T08:58:43.048043+00:00", "meta": {"OBJECT_NAME": "IRS-P6 (RESOURCESAT-1)", "OBJECT_ID": "2003-046A", "EPOCH": "2025-12-18T00:14:42.429120", "MEAN_MOTION": 14.36077277, "ECCENTRICITY": 0.00644321, "INCLINATION": 98.2178, "RA_OF_ASC_NODE": 32.1733, "ARG_OF_PERICENTER": 164.9049, "MEAN_ANOMALY": 257.0945, "EPHEMERIS_TYPE": 0, "CLASSIFICATION_TYPE": "U", "NORAD_CAT_ID": 28051, "ELEMENT_SET_NO": 999, "REV_AT_EPOCH": 15452, "BSTAR": 7.9755935e-05, "MEAN_MOTION_DOT": 1.97e-06, "MEAN_MOTION_DDOT": 0}, "tle": {"line1": "1 28051U 03046A   25352.01021330  .00000197  00000+0  79756-4 0  9990", "line2": "2 28051  98.2178  32.1733 0064432 164.9049 257.0945 14.36077277154527"}}, "geometry": {"type": "Point", "coordinates": [-141.10828636345698, 37.52102349882672]}}, {"type": "Feature", "properties": {"norad_id": 28220, "name": "SHIYAN-1 (SY-1)", "group": "resource", "lat": 78.82700914972146, "lon": 9.6217223328378, "alt_km": 476.32693364949137, "timestamp": "2025-12-18T08:58:43.048054+00:00", "meta": {"OBJECT_NAME": "SHIYAN-1 (SY-1)", "OBJECT_ID": "2004-012A", "EPOCH": "2025-12-17T18:28:41.835360", "MEAN_MOTION": 15.28274042, "ECCENTRICITY": 0.00052861, "INCLINATION": 97.8936, "RA_OF_ASC_NODE": 53.6058, "ARG_OF_PERICENTER": 305.3708, "MEAN_ANOMALY": 54.7036, "EPHEMERIS_TYPE": 0, "CLASSIFICATION_TYPE": "U", "NORAD_CAT_ID": 28220, "ELEMENT_SET_NO": 999, "REV_AT_EPOCH": 18333, "BSTAR": 0.00037812243, "MEAN_MOTION_DOT": 0.00010341, "MEAN_MOTION_DDOT": 0}, "tle": {"line1": "1 28220U 04012A   25351.76992865  .00010341  00000+0  37812-3 0  9991", "line2": "2 28220  97.8936  53.6058 0005286 305.3708  54.7036 15.28274042183330"}}, "geometry": {"type": "Point", "coordinates": [9.6217223328378, 78.82700914972146]}}, {"type": "Feature", "properties": {"norad_id": 28376, "name": "AURA", "group": "resource", "lat": -13.024947322642577, "lon": 120.6872152952028, "alt_km": 694.7741507934261, "timestamp": "2025-12-18T08:58:43.048065+00:00", "meta": {"OBJECT_NAME": "AURA", "OBJECT_ID": "2004-026A", "EPOCH": "2025-12-17T20:35:30.374016", "MEAN_MOTION": 14.60958557, "ECCENTRICITY": 0.00013244, "INCLINATION": 98.319, "RA_OF_ASC_NODE": 302.1084, "ARG_OF_PERICENTER": 93.2143, "MEAN_ANOMALY": 266.9209, "EPHEMERIS_TYPE": 0, "CLASSIFICATION_TYPE": "U", "NORAD_CAT_ID": 28376, "ELEMENT_SET_NO": 999, "REV_AT_EPOCH": 13973, "BSTAR": 0.00018597862, "MEAN_MOTION_DOT": 8.63e-06, "MEAN_MOTION_DDOT": 0}, "tle": {"line1": "1 28376U 04026A   25351.85799044  .00000863  00000+0  18598-3 0  9990", "line2": "2 28376  98.3190 302.1084 0001324  93.2143 266.9209 14.60958557139735"}}, "geometry": {"type": "Point", "coordinates": [120.6872152952028, -13.024947322642577]}}]}